start=new Date('2023-06-01T00:00:00.000Z').valueOf();
sats=[{"APOAPSIS":"560.144","OBJECT_ID":"2023-015R","MEAN_MOTION":"15.02529674","MEAN_MOTION_DOT":"-0.00000230","EPOCH":"2023-05-31T21:14:53.811456","ARG_OF_PERICENTER":"272.6452","DECAY_DATE":null,"LAUNCH_DATE":"2023-02-02","TLE_LINE1":"1 55464U 23015R   23151.88534504 -.00000230  00000-0 -19446-5 0  9990","SITE":"AFETR","OBJECT_TYPE":"PAYLOAD","PERIAPSIS":"558.058","NORAD_CAT_ID":"55464","CLASSIFICATION_TYPE":"U","OBJECT_NAME":"STARLINK-5676","MEAN_ANOMALY":"87.4218","MEAN_ELEMENT_THEORY":"SGP4","PERIOD":"95.838","INCLINATION":"43.0044","BSTAR":"-0.00000194460000","GP_ID":"232931135","COUNTRY_CODE":"US","MEAN_MOTION_DDOT":"0.0000000000000","REF_FRAME":"TEME","TIME_SYSTEM":"UTC","FILE":"3922037","ELEMENT_SET_NO":"999","CENTER_NAME":"EARTH","SEMIMAJOR_AXIS":"6937.236","REV_AT_EPOCH":"1840","RCS_SIZE":"LARGE","RA_OF_ASC_NODE":"69.1327","TLE_LINE2":"2 55464  43.0044  69.1327 0001504 272.6452  87.4218 15.02529674 18401","EPHEMERIS_TYPE":"0","ECCENTRICITY":"0.00015040"},{"MEAN_ANOMALY":"91.1459","MEAN_ELEMENT_THEORY":"SGP4","PERIOD":"95.838","BSTAR":"0.00001280000000","INCLINATION":"43.0045","COUNTRY_CODE":"US","GP_ID":"232929883","REF_FRAME":"TEME","MEAN_MOTION_DDOT":"0.0000000000000","TIME_SYSTEM":"UTC","FILE":"3922037","PERIAPSIS":"558.304","NORAD_CAT_ID":"55465","CLASSIFICATION_TYPE":"U","OBJECT_NAME":"STARLINK-5674","DECAY_DATE":null,"LAUNCH_DATE":"2023-02-02","TLE_LINE1":"1 55465U 23015S   23151.88978404 -.00000031  00000-0  12800-4 0  9996","SITE":"AFETR","OBJECT_TYPE":"PAYLOAD","APOAPSIS":"559.901","OBJECT_ID":"2023-015S","MEAN_MOTION_DOT":"-0.00000031","MEAN_MOTION":"15.02529242","EPOCH":"2023-05-31T21:21:17.341056","ARG_OF_PERICENTER":"268.9252","TLE_LINE2":"2 55465  43.0045  69.1656 0001151 268.9252  91.1459 15.02529242 18402","EPHEMERIS_TYPE":"0","ECCENTRICITY":"0.00011510","RCS_SIZE":"LARGE","RA_OF_ASC_NODE":"69.1656","REV_AT_EPOCH":"1840","ELEMENT_SET_NO":"999","CENTER_NAME":"EARTH","SEMIMAJOR_AXIS":"6937.237"},{"EPHEMERIS_TYPE":"0","TLE_LINE2":"2 55466  43.0041  69.0485 0001496 265.6993  94.3678 15.02528478 18404","ECCENTRICITY":"0.00014960","RCS_SIZE":"LARGE","RA_OF_ASC_NODE":"69.0485","REV_AT_EPOCH":"1840","ELEMENT_SET_NO":"999","SEMIMAJOR_AXIS":"6937.240","CENTER_NAME":"EARTH","MEAN_ANOMALY":"94.3678","MEAN_ELEMENT_THEORY":"SGP4","GP_ID":"232930133","COUNTRY_CODE":"US","INCLINATION":"43.0041","PERIOD":"95.838","BSTAR":"0.00001234200000","TIME_SYSTEM":"UTC","REF_FRAME":"TEME","MEAN_MOTION_DDOT":"0.0000000000000","FILE":"3922037","PERIAPSIS":"558.067","CLASSIFICATION_TYPE":"U","NORAD_CAT_ID":"55466","OBJECT_NAME":"STARLINK-5628","DECAY_DATE":null,"LAUNCH_DATE":"2023-02-02","TLE_LINE1":"1 55466U 23015T   23151.87424528 -.00000037  00000-0  12342-4 0  9996","OBJECT_TYPE":"PAYLOAD","SITE":"AFETR","OBJECT_ID":"2023-015T","APOAPSIS":"560.142","MEAN_MOTION_DOT":"-0.00000037","MEAN_MOTION":"15.02528478","EPOCH":"2023-05-31T20:58:54.792192","ARG_OF_PERICENTER":"265.6993"},{"EPOCH":"2023-05-31T19:55:08.769504","ARG_OF_PERICENTER":"268.2891","OBJECT_ID":"2023-015U","APOAPSIS":"559.983","MEAN_MOTION_DOT":"0.00000555","MEAN_MOTION":"15.02529425","TLE_LINE1":"1 55467U 23015U   23151.82996261  .00000555  00000-0  56162-4 0  9992","OBJECT_TYPE":"PAYLOAD","SITE":"AFETR","DECAY_DATE":null,"LAUNCH_DATE":"2023-02-02","OBJECT_NAME":"STARLINK-5679","PERIAPSIS":"558.220","CLASSIFICATION_TYPE":"U","NORAD_CAT_ID":"55467","TIME_SYSTEM":"UTC","REF_FRAME":"TEME","MEAN_MOTION_DDOT":"0.0000000000000","FILE":"3922037","MEAN_ANOMALY":"91.7806","MEAN_ELEMENT_THEORY":"SGP4","GP_ID":"232930385","COUNTRY_CODE":"US","PERIOD":"95.838","BSTAR":"0.00005616200000","INCLINATION":"43.0045","SEMIMAJOR_AXIS":"6937.237","CENTER_NAME":"EARTH","ELEMENT_SET_NO":"999","REV_AT_EPOCH":"1839","RCS_SIZE":"LARGE","RA_OF_ASC_NODE":"69.5821","EPHEMERIS_TYPE":"0","TLE_LINE2":"2 55467  43.0045  69.5821 0001271 268.2891  91.7806 15.02529425 18390","ECCENTRICITY":"0.00012710"},{"TIME_SYSTEM":"UTC","REF_FRAME":"TEME","MEAN_MOTION_DDOT":"0.0000000000000","FILE":"3922037","MEAN_ANOMALY":"90.1994","MEAN_ELEMENT_THEORY":"SGP4","GP_ID":"232930636","COUNTRY_CODE":"US","PERIOD":"95.838","BSTAR":"0.00002603200000","INCLINATION":"43.0042","OBJECT_NAME":"STARLINK-5672","PERIAPSIS":"558.136","CLASSIFICATION_TYPE":"U","NORAD_CAT_ID":"55468","TLE_LINE1":"1 55468U 23015V   23151.88201206  .00000148  00000-0  26032-4 0  9998","OBJECT_TYPE":"PAYLOAD","SITE":"AFETR","DECAY_DATE":null,"LAUNCH_DATE":"2023-02-02","EPOCH":"2023-05-31T21:10:05.841984","ARG_OF_PERICENTER":"269.8689","OBJECT_ID":"2023-015V","APOAPSIS":"560.057","MEAN_MOTION_DOT":"0.00000148","MEAN_MOTION":"15.02531086","EPHEMERIS_TYPE":"0","TLE_LINE2":"2 55468  43.0042  69.1078 0001385 269.8689  90.1994 15.02531086 18405","ECCENTRICITY":"0.00013850","RA_OF_ASC_NODE":"69.1078","RCS_SIZE":"LARGE","REV_AT_EPOCH":"1840","SEMIMAJOR_AXIS":"6937.232","CENTER_NAME":"EARTH","ELEMENT_SET_NO":"999"},{"SITE":"AFETR","OBJECT_TYPE":"PAYLOAD","TLE_LINE1":"1 55469U 23015W   23151.88756227  .00000409  00000-0  45378-4 0  9991","LAUNCH_DATE":"2023-02-02","DECAY_DATE":null,"ARG_OF_PERICENTER":"273.4781","EPOCH":"2023-05-31T21:18:05.380128","MEAN_MOTION":"15.02529628","MEAN_MOTION_DOT":"0.00000409","APOAPSIS":"560.041","OBJECT_ID":"2023-015W","FILE":"3922037","MEAN_MOTION_DDOT":"0.0000000000000","REF_FRAME":"TEME","TIME_SYSTEM":"UTC","INCLINATION":"43.0044","PERIOD":"95.838","BSTAR":"0.00004537800000","GP_ID":"232929384","COUNTRY_CODE":"US","MEAN_ELEMENT_THEORY":"SGP4","MEAN_ANOMALY":"86.5906","OBJECT_NAME":"STARLINK-5681","NORAD_CAT_ID":"55469","CLASSIFICATION_TYPE":"U","PERIAPSIS":"558.161","REV_AT_EPOCH":"1840","CENTER_NAME":"EARTH","SEMIMAJOR_AXIS":"6937.236","ELEMENT_SET_NO":"999","ECCENTRICITY":"0.00013550","TLE_LINE2":"2 55469  43.0044  69.1493 0001355 273.4781  86.5906 15.02529628 18401","EPHEMERIS_TYPE":"0","RCS_SIZE":"LARGE","RA_OF_ASC_NODE":"69.1493"},{"RA_OF_ASC_NODE":"69.0902","RCS_SIZE":"LARGE","ECCENTRICITY":"0.00012960","EPHEMERIS_TYPE":"0","TLE_LINE2":"2 55470  43.0046  69.0902 0001296 274.7917  85.2777 15.02532271 18408","SEMIMAJOR_AXIS":"6937.228","CENTER_NAME":"EARTH","ELEMENT_SET_NO":"999","REV_AT_EPOCH":"1840","OBJECT_NAME":"STARLINK-5708","CLASSIFICATION_TYPE":"U","NORAD_CAT_ID":"55470","PERIAPSIS":"558.194","FILE":"3922037","TIME_SYSTEM":"UTC","MEAN_MOTION_DDOT":"0.0000000000000","REF_FRAME":"TEME","GP_ID":"232929634","COUNTRY_CODE":"US","PERIOD":"95.838","INCLINATION":"43.0046","BSTAR":"0.00006815700000","MEAN_ELEMENT_THEORY":"SGP4","MEAN_ANOMALY":"85.2777","ARG_OF_PERICENTER":"274.7917","EPOCH":"2023-05-31T21:06:54.043488","MEAN_MOTION_DOT":"0.00000717","MEAN_MOTION":"15.02532271","OBJECT_ID":"2023-015X","APOAPSIS":"559.992","OBJECT_TYPE":"PAYLOAD","SITE":"AFETR","TLE_LINE1":"1 55470U 23015X   23151.87979217  .00000717  00000-0  68157-4 0  9990","LAUNCH_DATE":"2023-02-02","DECAY_DATE":null},{"RA_OF_ASC_NODE":"69.0651","RCS_SIZE":"LARGE","EPHEMERIS_TYPE":"0","TLE_LINE2":"2 55471  43.0047  69.0651 0001405 269.7167  90.3515 15.02528404 18404","ECCENTRICITY":"0.00014050","ELEMENT_SET_NO":"999","SEMIMAJOR_AXIS":"6937.240","CENTER_NAME":"EARTH","REV_AT_EPOCH":"1840","PERIAPSIS":"558.130","CLASSIFICATION_TYPE":"U","NORAD_CAT_ID":"55471","OBJECT_NAME":"STARLINK-5711","MEAN_ELEMENT_THEORY":"SGP4","MEAN_ANOMALY":"90.3515","COUNTRY_CODE":"US","GP_ID":"232930885","BSTAR":"-0.00000517270000","PERIOD":"95.838","INCLINATION":"43.0047","TIME_SYSTEM":"UTC","MEAN_MOTION_DDOT":"0.0000000000000","REF_FRAME":"TEME","FILE":"3922037","OBJECT_ID":"2023-015Y","APOAPSIS":"560.080","MEAN_MOTION_DOT":"-0.00000274","MEAN_MOTION":"15.02528404","EPOCH":"2023-05-31T21:02:06.749664","ARG_OF_PERICENTER":"269.7167","DECAY_DATE":null,"LAUNCH_DATE":"2023-02-02","TLE_LINE1":"1 55471U 23015Y   23151.87646701 -.00000274  00000-0 -51727-5 0  9996","OBJECT_TYPE":"PAYLOAD","SITE":"AFETR"},{"CENTER_NAME":"EARTH","SEMIMAJOR_AXIS":"6937.225","ELEMENT_SET_NO":"999","REV_AT_EPOCH":"1854","RCS_SIZE":"LARGE","RA_OF_ASC_NODE":"56.9279","ECCENTRICITY":"0.00014570","TLE_LINE2":"2 55472  43.0039  56.9279 0001457 271.5728  88.4947 15.02533252 18547","EPHEMERIS_TYPE":"0","ARG_OF_PERICENTER":"271.5728","EPOCH":"2023-05-31T21:02:38.706432","MEAN_MOTION":"15.02533252","MEAN_MOTION_DOT":"0.00000509","APOAPSIS":"560.101","OBJECT_ID":"2023-015Z","SITE":"AFETR","OBJECT_TYPE":"PAYLOAD","TLE_LINE1":"1 55472U 23015Z   23151.87683688  .00000509  00000-0  52750-4 0  9997","LAUNCH_DATE":"2023-02-02","DECAY_DATE":null,"OBJECT_NAME":"STARLINK-5705","NORAD_CAT_ID":"55472","CLASSIFICATION_TYPE":"U","PERIAPSIS":"558.079","FILE":"3922037","MEAN_MOTION_DDOT":"0.0000000000000","REF_FRAME":"TEME","TIME_SYSTEM":"UTC","PERIOD":"95.838","BSTAR":"0.00005275000000","INCLINATION":"43.0039","GP_ID":"232931136","COUNTRY_CODE":"US","MEAN_ELEMENT_THEORY":"SGP4","MEAN_ANOMALY":"88.4947"},{"TLE_LINE1":"1 55473U 23015AA  23151.87202576 -.00000448  00000-0 -18124-4 0  9992","SITE":"AFETR","OBJECT_TYPE":"PAYLOAD","DECAY_DATE":null,"LAUNCH_DATE":"2023-02-02","EPOCH":"2023-05-31T20:55:43.025664","ARG_OF_PERICENTER":"261.9029","APOAPSIS":"560.236","OBJECT_ID":"2023-015AA","MEAN_MOTION_DOT":"-0.00000448","MEAN_MOTION":"15.02526374","REF_FRAME":"TEME","MEAN_MOTION_DDOT":"0.0000000000000","TIME_SYSTEM":"UTC","FILE":"3922037","MEAN_ANOMALY":"98.1629","MEAN_ELEMENT_THEORY":"SGP4","PERIOD":"95.839","BSTAR":"-0.00001812400000","INCLINATION":"43.0043","GP_ID":"232929884","COUNTRY_CODE":"US","OBJECT_NAME":"STARLINK-5687","PERIAPSIS":"557.987","NORAD_CAT_ID":"55473","CLASSIFICATION_TYPE":"U","REV_AT_EPOCH":"1840","CENTER_NAME":"EARTH","SEMIMAJOR_AXIS":"6937.246","ELEMENT_SET_NO":"999","TLE_LINE2":"2 55473  43.0043  69.0326 0001621 261.9029  98.1629 15.02526374 18408","EPHEMERIS_TYPE":"0","ECCENTRICITY":"0.00016210","RCS_SIZE":"LARGE","RA_OF_ASC_NODE":"69.0326"}];
